$$SOE
2460147.500000000, A.D. 2023-Jul-22 00:00:00.0000, 4.956385975202991E+08, -9.562572393755049E+07, -1.860993807984345E+07,
2460154.500000000, A.D. 2023-Jul-29 00:00:00.0000, 4.958110739171418E+08, -8.513338681811543E+07, -1.812239664280767E+07,
2460161.500000000, A.D. 2023-Aug-05 00:00:00.0000, 4.957948546003119E+08, -7.460850890619446E+07, -1.762795626767266E+07,
2460168.500000000, A.D. 2023-Aug-12 00:00:00.0000, 4.955880116324259E+08, -6.405480286920215E+07, -1.712673643856665E+07,
2460175.500000000, A.D. 2023-Aug-19 00:00:00.0000, 4.951886920223112E+08, -5.347607499411310E+07, -1.661886318155962E+07,
2460182.500000000, A.D. 2023-Aug-26 00:00:00.0000, 4.945951223769414E+08, -4.287622408782215E+07, -1.610446914447553E+07,
2460189.500000000, A.D. 2023-Sep-02 00:00:00.0000, 4.938056135927154E+08, -3.225924021537296E+07, -1.558369367213411E+07,
2460196.500000000, A.D. 2023-Sep-09 00:00:00.0000, 4.928185656102918E+08, -2.162920330831284E+07, -1.505668288291335E+07,
2460203.500000000, A.D. 2023-Sep-16 00:00:00.0000, 4.916324723872976E+08, -1.099028169245183E+07, -1.452358976598206E+07,
2460210.500000000, A.D. 2023-Sep-23 00:00:00.0000, 4.902459274895099E+08, -3.467302393446732E+05, -1.398457431311724E+07,
2460217.500000000, A.D. 2023-Sep-30 00:00:00.0000, 4.886576299446728E+08, 1.029711305889651E+07, -1.343980355570602E+07,
2460224.500000000, A.D. 2023-Oct-07 00:00:00.0000, 4.868663879910854E+08, 2.093683155777340E+07, -1.288945133436147E+07,
2460231.500000000, A.D. 2023-Oct-14 00:00:00.0000, 4.848711217469980E+08, 3.156793216442957E+07, -1.233369816638931E+07,
2460238.500000000, A.D. 2023-Oct-21 00:00:00.0000, 4.826708680121680E+08, 4.218584688467225E+07, -1.177273137544360E+07,
2460245.500000000, A.D. 2023-Oct-28 00:00:00.0000, 4.802647857586372E+08, 5.278593597737351E+07, -1.120674516709287E+07,
2460252.500000000, A.D. 2023-Nov-04 00:00:00.0000, 4.776521610421094E+08, 6.336349194886722E+07, -1.063594059765905E+07,
2460259.500000000, A.D. 2023-Nov-11 00:00:00.0000, 4.748324114920906E+08, 7.391374378887954E+07, -1.006052550075089E+07,
2460266.500000000, A.D. 2023-Nov-18 00:00:00.0000, 4.718050905799078E+08, 8.443186138367103E+07, -9.480714396044545E+06,
2460273.500000000, A.D. 2023-Nov-25 00:00:00.0000, 4.685698917163197E+08, 9.491296012752217E+07, -8.896728384376932E+06,
2460280.500000000, A.D. 2023-Dec-02 00:00:00.0000, 4.651266521853353E+08, 1.053521057184492E+08, -8.308795031974252E+06,
2460287.500000000, A.D. 2023-Dec-09 00:00:00.0000, 4.614753569703226E+08, 1.157443190746673E+08, -7.717148255222335E+06,
2460294.500000000, A.D. 2023-Dec-16 00:00:00.0000, 4.576161427380280E+08, 1.260845813777320E+08, -7.122028230971068E+06,
2460301.500000000, A.D. 2023-Dec-23 00:00:00.0000, 4.535493023059735E+08, 1.363678399209616E+08, -6.523681308011524E+06,
2460308.500000000, A.D. 2023-Dec-30 00:00:00.0000, 4.492752882292302E+08, 1.465890158028707E+08, -5.922359710933074E+06,
2460315.500000000, A.D. 2024-Jan-06 00:00:00.0000, 4.447947137133563E+08, 1.567430110947673E+08, -5.318321066612646E+06,
2460322.500000000, A.D. 2024-Jan-13 00:00:00.0000, 4.401083540071012E+08, 1.668247136614951E+08, -4.711828192322582E+06,
2460329.500000000, A.D. 2024-Jan-20 00:00:00.0000, 4.352171494769360E+08, 1.768290027031243E+08, -4.103149006119393E+06,
2460336.500000000, A.D. 2024-Jan-27 00:00:00.0000, 4.301222083137485E+08, 1.867507556524326E+08, -3.492556320597135E+06,
2460343.500000000, A.D. 2024-Feb-03 00:00:00.0000, 4.248248084245027E+08, 1.965848554606191E+08, -2.880327558775619E+06,
2460350.500000000, A.D. 2024-Feb-10 00:00:00.0000, 4.193263987688082E+08, 2.063261979591816E+08, -2.266744442019701E+06,
2460357.500000000, A.D. 2024-Feb-17 00:00:00.0000, 4.136286002629390E+08, 2.159696992831290E+08, -1.652092662816226E+06,
2460364.500000000, A.D. 2024-Feb-24 00:00:00.0000, 4.077332062725619E+08, 2.255103033459897E+08, -1.036661545332283E+06,
2460371.500000000, A.D. 2024-Mar-02 00:00:00.0000, 4.016421827105992E+08, 2.349429893083875E+08, -4.207437000060081E+05,
2460378.500000000, A.D. 2024-Mar-09 00:00:00.0000, 3.953576678682284E+08, 2.442627789503888E+08, 1.953653089702278E+05,
2460385.500000000, A.D. 2024-Mar-16 00:00:00.0000, 3.888819723658599E+08, 2.534647441164368E+08, 8.113672620106041E+05,
2460392.500000000, A.D. 2024-Mar-23 00:00:00.0000, 3.822175791132166E+08, 2.625440153114103E+08, 1.426961647160456E+06,
2460399.500000000, A.D. 2024-Mar-30 00:00:00.0000, 3.753671410305614E+08, 2.714957913906215E+08, 2.041846289963931E+06,
2460406.500000000, A.D. 2024-Apr-06 00:00:00.0000, 3.683334767854695E+08, 2.803153469478175E+08, 2.655717950401530E+06,
2460413.500000000, A.D. 2024-Apr-13 00:00:00.0000, 3.611195680990592E+08, 2.889980382069077E+08, 3.268272628033727E+06,
2460420.500000000, A.D. 2024-Apr-20 00:00:00.0000, 3.537285576719903E+08, 2.975393100616099E+08, 3.879205879798427E+06,
2460427.500000000, A.D. 2024-Apr-27 00:00:00.0000, 3.461637462178926E+08, 3.059347036704375E+08, 4.488213242230996E+06,
2460434.500000000, A.D. 2024-May-04 00:00:00.0000, 3.384285887003564E+08, 3.141798638730697E+08, 5.094990691027194E+06,
2460441.500000000, A.D. 2024-May-11 00:00:00.0000, 3.305266900226972E+08, 3.222705462957705E+08, 5.699235106142491E+06,
2460448.500000000, A.D. 2024-May-18 00:00:00.0000, 3.224618002652661E+08, 3.302026241372044E+08, 6.300644734984770E+06,
2460455.500000000, A.D. 2024-May-25 00:00:00.0000, 3.142378095093555E+08, 3.379720945982098E+08, 6.898919649143621E+06,
2460462.500000000, A.D. 2024-Jun-01 00:00:00.0000, 3.058587423235640E+08, 3.455750848708481E+08, 7.493762182838574E+06,
2460469.500000000, A.D. 2024-Jun-08 00:00:00.0000, 2.973287521776184E+08, 3.530078576395638E+08, 8.084877327114359E+06,
2460476.500000000, A.D. 2024-Jun-15 00:00:00.0000, 2.886521162055784E+08, 3.602668166180086E+08, 8.671973086253151E+06,
2460483.500000000, A.D. 2024-Jun-22 00:00:00.0000, 2.798332293382782E+08, 3.673485132755676E+08, 9.254760983125359E+06,
2460490.500000000, A.D. 2024-Jun-29 00:00:00.0000, 2.708765957084522E+08, 3.742496529132339E+08, 9.832956757959336E+06,
2460497.500000000, A.D. 2024-Jul-06 00:00:00.0000, 2.617868200020995E+08, 3.809670976033105E+08, 1.040628081481865E+07,
2460504.500000000, A.D. 2024-Jul-13 00:00:00.0000, 2.525686007372157E+08, 3.874978688028036E+08, 1.097445846618274E+07,
2460511.500000000, A.D. 2024-Jul-20 00:00:00.0000, 2.432267235144182E+08, 3.938391507748852E+08, 1.153722024995843E+07,
2460518.500000000, A.D. 2024-Jul-27 00:00:00.0000, 2.337660536135405E+08, 3.999882938482417E+08, 1.209430229918680E+07,
2460525.500000000, A.D. 2024-Aug-03 00:00:00.0000, 2.241915282403792E+08, 4.059428171320592E+08, 1.264544670731688E+07,
2460532.500000000, A.D. 2024-Aug-10 00:00:00.0000, 2.145081486213076E+08, 4.117004106776782E+08, 1.319040187204593E+07,
2460539.500000000, A.D. 2024-Aug-17 00:00:00.0000, 2.047209720252801E+08, 4.172589371068000E+08, 1.372892281379133E+07,
2460546.500000000, A.D. 2024-Aug-24 00:00:00.0000, 1.948351037732031E+08, 4.226164326847699E+08, 1.426077146314001E+07,
2460553.500000000, A.D. 2024-Aug-31 00:00:00.0000, 1.848556893820955E+08, 4.277711077808250E+08, 1.478571690049556E+07,
2460560.500000000, A.D. 2024-Sep-07 00:00:00.0000, 1.747879072409050E+08, 4.327213468478058E+08, 1.530353552372938E+07,
2460567.500000000, A.D. 2024-Sep-14 00:00:00.0000, 1.646369619344975E+08, 4.374657089257721E+08, 1.581401121650741E+07,
2460574.500000000, A.D. 2024-Sep-21 00:00:00.0000, 1.544080762173367E+08, 4.420029290907873E+08, 1.631693573623046E+07,
2460581.500000000, A.D. 2024-Sep-28 00:00:00.0000, 1.441064811759076E+08, 4.463319176311296E+08, 1.681210910208565E+07,
2460588.500000000, A.D. 2024-Oct-05 00:00:00.0000, 1.337374082755177E+08, 4.504517569685982E+08, 1.729933964670789E+07,
2460595.500000000, A.D. 2024-Oct-12 00:00:00.0000, 1.233060829578291E+08, 4.543616993218886E+08, 1.777844400788453E+07,
2460602.500000000, A.D. 2024-Oct-19 00:00:00.0000, 1.128177180620819E+08, 4.580611648571010E+08, 1.824924719874197E+07,
2460609.500000000, A.D. 2024-Oct-26 00:00:00.0000, 1.022775070588454E+08, 4.615497395418570E+08, 1.871158269417697E+07,
2460616.500000000, A.D. 2024-Nov-02 00:00:00.0000, 9.169061737318398E+07, 4.648271725743819E+08, 1.916529249827206E+07,
2460623.500000000, A.D. 2024-Nov-09 00:00:00.0000, 8.106218391159490E+07, 4.678933734291236E+08, 1.961022718612996E+07,
2460630.500000000, A.D. 2024-Nov-16 00:00:00.0000, 7.039730283437972E+07, 4.707484085408090E+08, 2.004624591850662E+07,
2460637.500000000, A.D. 2024-Nov-23 00:00:00.0000, 5.970102563404996E+07, 4.733924975992240E+08, 2.047321642171383E+07,
2460644.500000000, A.D. 2024-Nov-30 00:00:00.0000, 4.897835373954240E+07, 4.758260094346542E+08, 2.089101491116196E+07,
2460651.500000000, A.D. 2024-Dec-07 00:00:00.0000, 3.823423407500581E+07, 4.780494579377679E+08, 2.129952595551020E+07,
2460658.500000000, A.D. 2024-Dec-14 00:00:00.0000, 2.747355489235266E+07, 4.800634992615233E+08, 2.169864244568354E+07,
2460665.500000000, A.D. 2024-Dec-21 00:00:00.0000, 1.670113956537504E+07, 4.818689290859138E+08, 2.208826578103065E+07,
2460672.500000000, A.D. 2024-Dec-28 00:00:00.0000, 5.921740319983860E+06, 4.834666769984415E+08, 2.246830585047245E+07,
2460679.500000000, A.D. 2025-Jan-04 00:00:00.0000, -4.859965502245300E+06, 4.848578003905780E+08, 2.283868076609319E+07,
2460686.500000000, A.D. 2025-Jan-11 00:00:00.0000, -1.563937846771406E+07, 4.860434795537761E+08, 2.319931665316281E+07,
2460693.500000000, A.D. 2025-Jan-18 00:00:00.0000, -2.641198027941861E+07, 4.870250130771803E+08, 2.355014750691149E+07,
2460700.500000000, A.D. 2025-Jan-25 00:00:00.0000, -3.717333696975993E+07, 4.878038130925704E+08, 2.389111505630696E+07,
2460707.500000000, A.D. 2025-Feb-01 00:00:00.0000, -4.791910187206587E+07, 4.883814003555516E+08, 2.422216861633509E+07,
2460714.500000000, A.D. 2025-Feb-08 00:00:00.0000, -5.864501831801371E+07, 4.887593992006418E+08, 2.454326492634445E+07,
$$EOE